[{"OBJECT_NAME":"STARLINK-6354","OBJECT_ID":"2023-078T","EPOCH":"2026-03-09T23:24:08.751456","MEAN_MOTION":14.98325919,"ECCENTRICITY":0.00024827,"INCLINATION":70.0007,"RA_OF_ASC_NODE":323.8448,"ARG_OF_PERICENTER":254.9219,"MEAN_ANOMALY":105.1665,"EPHEMERIS_TYPE":0,"CLASSIFICATION_TYPE":"U","NORAD_CAT_ID":56784,"ELEMENT_SET_NO":999,"REV_AT_EPOCH":15321,"BSTAR":-6.2120621e-5,"MEAN_MOTION_DOT":-8.34e-6,"MEAN_MOTION_DDOT":0},{"OBJECT_NAME":"ADRAS-J","OBJECT_ID":"2024-034A","EPOCH":"2026-03-09T21:58:53.298624","MEAN_MOTION":15.13266815,"ECCENTRICITY":0.00758128,"INCLINATION":98.223,"RA_OF_ASC_NODE":88.3954,"ARG_OF_PERICENTER":99.4078,"MEAN_ANOMALY":261.5731,"EPHEMERIS_TYPE":0,"CLASSIFICATION_TYPE":"U","NORAD_CAT_ID":58992,"ELEMENT_SET_NO":999,"REV_AT_EPOCH":11235,"BSTAR":0.00021470617,"MEAN_MOTION_DOT":4.016e-5,"MEAN_MOTION_DDOT":0}]
